{
 "generated_at": "2026-06-21T08:57:48Z",
 "sources": [
  {
   "name": "CelesTrak",
   "url": "https://celestrak.org/NORAD/elements/",
   "license": "frei verfügbar; Attribution. Ursprünglich USSPACECOM/Space-Track."
  },
  {
   "name": "GCAT (J. McDowell, planet4589.org)",
   "url": "https://planet4589.org/space/gcat/",
   "license": "CC-BY 4.0"
  }
 ],
 "satellites": [
  {
   "norad": 47932,
   "name": "CAS500-1",
   "intl": "2021-022A",
   "group": "resource",
   "gcat": {
    "class": "C",
    "category": "IMG",
    "owner": "KARI",
    "state": "KR"
   },
   "omm": {
    "OBJECT_NAME": "CAS500-1",
    "OBJECT_ID": "2021-022A",
    "EPOCH": "2026-06-21T05:02:25.322784",
    "MEAN_MOTION": 15.20170489,
    "ECCENTRICITY": 0.0003224,
    "INCLINATION": 97.3894,
    "RA_OF_ASC_NODE": 67.3818,
    "ARG_OF_PERICENTER": 278.9562,
    "MEAN_ANOMALY": 81.1308,
    "EPHEMERIS_TYPE": 0,
    "CLASSIFICATION_TYPE": "U",
    "NORAD_CAT_ID": 47932,
    "ELEMENT_SET_NO": 999,
    "REV_AT_EPOCH": 29137,
    "BSTAR": 0.00022448,
    "MEAN_MOTION_DOT": 0.00004792,
    "MEAN_MOTION_DDOT": 0
   }
  },
  {
   "norad": 69013,
   "name": "CAS500-2",
   "intl": "2026-100AK",
   "group": "resource",
   "gcat": {
    "class": "C",
    "category": "TECH",
    "owner": "KAIST",
    "state": "KR"
   },
   "omm": {
    "OBJECT_NAME": "CAS500-2",
    "OBJECT_ID": "2026-100AK",
    "EPOCH": "2026-06-20T10:37:07.546944",
    "MEAN_MOTION": 15.20622267,
    "ECCENTRICITY": 0.001036,
    "INCLINATION": 97.407,
    "RA_OF_ASC_NODE": 69.2409,
    "ARG_OF_PERICENTER": 24.6187,
    "MEAN_ANOMALY": 335.5541,
    "EPHEMERIS_TYPE": 0,
    "CLASSIFICATION_TYPE": "U",
    "NORAD_CAT_ID": 69013,
    "ELEMENT_SET_NO": 999,
    "REV_AT_EPOCH": 730,
    "BSTAR": 0.00023744,
    "MEAN_MOTION_DOT": 0.00005146,
    "MEAN_MOTION_DDOT": 0
   }
  },
  {
   "norad": 66655,
   "name": "CAS500-3",
   "intl": "2025-274F",
   "group": "resource",
   "gcat": {
    "class": "B",
    "category": "IMG",
    "owner": "KAIST",
    "state": "KR"
   },
   "omm": {
    "OBJECT_NAME": "CAS500-3",
    "OBJECT_ID": "2025-274F",
    "EPOCH": "2026-06-20T09:00:08.875008",
    "MEAN_MOTION": 14.88327389,
    "ECCENTRICITY": 0.0006853,
    "INCLINATION": 97.7445,
    "RA_OF_ASC_NODE": 99.3536,
    "ARG_OF_PERICENTER": 102.0514,
    "MEAN_ANOMALY": 258.1471,
    "EPHEMERIS_TYPE": 0,
    "CLASSIFICATION_TYPE": "U",
    "NORAD_CAT_ID": 66655,
    "ELEMENT_SET_NO": 999,
    "REV_AT_EPOCH": 3062,
    "BSTAR": 0.00010546,
    "MEAN_MOTION_DOT": 0.00000922,
    "MEAN_MOTION_DDOT": 0
   }
  },
  {
   "norad": 40336,
   "name": "CBERS 4",
   "intl": "2014-079A",
   "group": "resource",
   "gcat": {
    "class": "C",
    "category": "IMG",
    "owner": "ZZWYZ/INPE",
    "state": "CN"
   },
   "omm": {
    "OBJECT_NAME": "CBERS 4",
    "OBJECT_ID": "2014-079A",
    "EPOCH": "2026-06-21T05:15:49.913280",
    "MEAN_MOTION": 14.35509198,
    "ECCENTRICITY": 0.0001687,
    "INCLINATION": 98.3525,
    "RA_OF_ASC_NODE": 228.9247,
    "ARG_OF_PERICENTER": 61.4491,
    "MEAN_ANOMALY": 298.6865,
    "EPHEMERIS_TYPE": 0,
    "CLASSIFICATION_TYPE": "U",
    "NORAD_CAT_ID": 40336,
    "ELEMENT_SET_NO": 999,
    "REV_AT_EPOCH": 60453,
    "BSTAR": -0.000036497,
    "MEAN_MOTION_DOT": -0.00000147,
    "MEAN_MOTION_DDOT": 0
   }
  },
  {
   "norad": 64903,
   "name": "CO3D 1",
   "intl": "2025-156E",
   "group": "resource",
   "gcat": {
    "class": "C",
    "category": "SCI",
    "owner": "CNES",
    "state": "F"
   },
   "omm": {
    "OBJECT_NAME": "CO3D 1",
    "OBJECT_ID": "2025-156E",
    "EPOCH": "2026-06-20T01:13:08.300064",
    "MEAN_MOTION": 15.20215547,
    "ECCENTRICITY": 0.0001352,
    "INCLINATION": 97.4325,
    "RA_OF_ASC_NODE": 249.602,
    "ARG_OF_PERICENTER": 114.262,
    "MEAN_ANOMALY": 245.8756,
    "EPHEMERIS_TYPE": 0,
    "CLASSIFICATION_TYPE": "U",
    "NORAD_CAT_ID": 64903,
    "ELEMENT_SET_NO": 999,
    "REV_AT_EPOCH": 4996,
    "BSTAR": 0.00020076245,
    "MEAN_MOTION_DOT": 0.00004283,
    "MEAN_MOTION_DDOT": 0
   }
  },
  {
   "norad": 64902,
   "name": "CO3D 2",
   "intl": "2025-156D",
   "group": "resource",
   "gcat": {
    "class": "C",
    "category": "SCI",
    "owner": "CNES",
    "state": "F"
   },
   "omm": {
    "OBJECT_NAME": "CO3D 2",
    "OBJECT_ID": "2025-156D",
    "EPOCH": "2026-06-20T09:06:50.641920",
    "MEAN_MOTION": 15.20193266,
    "ECCENTRICITY": 0.000157,
    "INCLINATION": 97.4328,
    "RA_OF_ASC_NODE": 249.9261,
    "ARG_OF_PERICENTER": 106.6316,
    "MEAN_ANOMALY": 253.5091,
    "EPHEMERIS_TYPE": 0,
    "CLASSIFICATION_TYPE": "U",
    "NORAD_CAT_ID": 64902,
    "ELEMENT_SET_NO": 999,
    "REV_AT_EPOCH": 5001,
    "BSTAR": 0.00015474,
    "MEAN_MOTION_DOT": 0.00003283,
    "MEAN_MOTION_DDOT": 0
   }
  },
  {
   "norad": 64900,
   "name": "CO3D 3",
   "intl": "2025-156B",
   "group": "resource",
   "gcat": {
    "class": "C",
    "category": "SCI",
    "owner": "CNES",
    "state": "F"
   },
   "omm": {
    "OBJECT_NAME": "CO3D 3",
    "OBJECT_ID": "2025-156B",
    "EPOCH": "2026-06-20T11:29:25.725408",
    "MEAN_MOTION": 15.20194218,
    "ECCENTRICITY": 0.0001587,
    "INCLINATION": 97.4324,
    "RA_OF_ASC_NODE": 250.1245,
    "ARG_OF_PERICENTER": 126.6035,
    "MEAN_ANOMALY": 233.5346,
    "EPHEMERIS_TYPE": 0,
    "CLASSIFICATION_TYPE": "U",
    "NORAD_CAT_ID": 64900,
    "ELEMENT_SET_NO": 999,
    "REV_AT_EPOCH": 5003,
    "BSTAR": 0.00016165,
    "MEAN_MOTION_DOT": 0.00003433,
    "MEAN_MOTION_DDOT": 0
   }
  },
  {
   "norad": 64901,
   "name": "CO3D 4",
   "intl": "2025-156C",
   "group": "resource",
   "gcat": {
    "class": "C",
    "category": "SCI",
    "owner": "CNES",
    "state": "F"
   },
   "omm": {
    "OBJECT_NAME": "CO3D 4",
    "OBJECT_ID": "2025-156C",
    "EPOCH": "2026-06-20T09:54:51.803712",
    "MEAN_MOTION": 15.20197278,
    "ECCENTRICITY": 0.0000098,
    "INCLINATION": 97.4331,
    "RA_OF_ASC_NODE": 250.0596,
    "ARG_OF_PERICENTER": 241.9959,
    "MEAN_ANOMALY": 118.1266,
    "EPHEMERIS_TYPE": 0,
    "CLASSIFICATION_TYPE": "U",
    "NORAD_CAT_ID": 64901,
    "ELEMENT_SET_NO": 999,
    "REV_AT_EPOCH": 5002,
    "BSTAR": 0.000013182,
    "MEAN_MOTION_DOT": 0.00000218,
    "MEAN_MOTION_DDOT": 0
   }
  },
  {
   "norad": 36744,
   "name": "COMS 1",
   "intl": "2010-032A",
   "group": "weather",
   "gcat": {
    "class": "C",
    "category": "COM/MET",
    "owner": "KARI",
    "state": "KR"
   },
   "omm": {
    "OBJECT_NAME": "COMS 1",
    "OBJECT_ID": "2010-032A",
    "EPOCH": "2026-06-20T02:57:21.691872",
    "MEAN_MOTION": 0.99163259,
    "ECCENTRICITY": 0.001165,
    "INCLINATION": 4.8136,
    "RA_OF_ASC_NODE": 75.3217,
    "ARG_OF_PERICENTER": 12.3209,
    "MEAN_ANOMALY": 286.7612,
    "EPHEMERIS_TYPE": 0,
    "CLASSIFICATION_TYPE": "U",
    "NORAD_CAT_ID": 36744,
    "ELEMENT_SET_NO": 999,
    "REV_AT_EPOCH": 5111,
    "BSTAR": 0,
    "MEAN_MOTION_DOT": 8.7e-7,
    "MEAN_MOTION_DDOT": 0
   }
  },
  {
   "norad": 31598,
   "name": "COSMO-SKYMED 1",
   "intl": "2007-023A",
   "group": "resource",
   "gcat": {
    "class": "D",
    "category": "IMG-R",
    "owner": "ASI",
    "state": "I"
   },
   "omm": {
    "OBJECT_NAME": "COSMO-SKYMED 1",
    "OBJECT_ID": "2007-023A",
    "EPOCH": "2026-06-21T03:29:07.117728",
    "MEAN_MOTION": 14.97116981,
    "ECCENTRICITY": 0.0001591,
    "INCLINATION": 97.8853,
    "RA_OF_ASC_NODE": 4.034,
    "ARG_OF_PERICENTER": 96.8472,
    "MEAN_ANOMALY": 263.293,
    "EPHEMERIS_TYPE": 0,
    "CLASSIFICATION_TYPE": "U",
    "NORAD_CAT_ID": 31598,
    "ELEMENT_SET_NO": 999,
    "REV_AT_EPOCH": 3038,
    "BSTAR": 0.0002066,
    "MEAN_MOTION_DOT": 0.00002324,
    "MEAN_MOTION_DDOT": 0
   }
  }
 ]
}
